{
  "type": "FeatureCollection",
  "features": [
    {
      "type": "Feature",
      "properties": {
        "norad_id": 34003,
        "name": "COSMOS 2251 DEB",
        "group": "cosmos-2251-debris",
        "lat": -28.641821273080865,
        "lon": -74.43603406277825,
        "alt_km": 906.6867993060287,
        "timestamp": "2025-12-07T03:52:32.895828+00:00",
        "meta_object_name": "COSMOS 2251 DEB",
        "meta_object_id": "1993-036GN",
        "meta_epoch": "2025-12-06T07:12:02.823552",
        "meta_mean_motion": 13.84094622,
        "meta_eccentricity": 0.02738287,
        "meta_inclination": 74.0786,
        "meta_ra_of_asc_node": 295.9819,
        "meta_arg_of_pericenter": 49.5044,
        "meta_mean_anomaly": 312.9595,
        "meta_ephemeris_type": 0,
        "meta_classification_type": "U",
        "meta_norad_cat_id": 34003,
        "meta_element_set_no": 999,
        "meta_rev_at_epoch": 84336,
        "meta_bstar": 0.0035256997,
        "meta_mean_motion_dot": 5.228e-05,
        "meta_mean_motion_ddot": 0,
        "tle_line1": "1 34003U 93036GN  25340.30003268  .00005228  00000+0  35257-2 0  9997",
        "tle_line2": "2 34003  74.0786 295.9819 0273828  49.5044 312.9595 13.84094622843360"
      },
      "geometry": {
        "type": "Point",
        "coordinates": [
          -74.43603406277825,
          -28.641821273080865
        ]
      }
    },
    {
      "type": "Feature",
      "properties": {
        "norad_id": 34004,
        "name": "COSMOS 2251 DEB",
        "group": "cosmos-2251-debris",
        "lat": 63.634781635523254,
        "lon": 108.29154854901897,
        "alt_km": 739.2008314529494,
        "timestamp": "2025-12-07T03:52:32.895839+00:00",
        "meta_object_name": "COSMOS 2251 DEB",
        "meta_object_id": "1993-036GP",
        "meta_epoch": "2025-12-06T09:08:13.509024",
        "meta_mean_motion": 14.48910835,
        "meta_eccentricity": 0.00332553,
        "meta_inclination": 74.0358,
        "meta_ra_of_asc_node": 325.0323,
        "meta_arg_of_pericenter": 338.1291,
        "meta_mean_anomaly": 21.8447,
        "meta_ephemeris_type": 0,
        "meta_classification_type": "U",
        "meta_norad_cat_id": 34004,
        "meta_element_set_no": 999,
        "meta_rev_at_epoch": 87938,
        "meta_bstar": 0.0024975664,
        "meta_mean_motion_dot": 9.506e-05,
        "meta_mean_motion_ddot": 0,
        "tle_line1": "1 34004U 93036GP  25340.38071191  .00009506  00000+0  24976-2 0  9995",
        "tle_line2": "2 34004  74.0358 325.0323 0033255 338.1291  21.8447 14.48910835879387"
      },
      "geometry": {
        "type": "Point",
        "coordinates": [
          108.29154854901897,
          63.634781635523254
        ]
      }
    },
    {
      "type": "Feature",
      "properties": {
        "norad_id": 34005,
        "name": "COSMOS 2251 DEB",
        "group": "cosmos-2251-debris",
        "lat": -17.694816993600874,
        "lon": 49.19016377738325,
        "alt_km": 774.1233515154181,
        "timestamp": "2025-12-07T03:52:32.895849+00:00",
        "meta_object_name": "COSMOS 2251 DEB",
        "meta_object_id": "1993-036GQ",
        "meta_epoch": "2025-12-06T11:06:26.763264",
        "meta_mean_motion": 14.402976,
        "meta_eccentricity": 0.00206035,
        "meta_inclination": 74.0451,
        "meta_ra_of_asc_node": 225.2438,
        "meta_arg_of_pericenter": 344.5777,
        "meta_mean_anomaly": 192.6212,
        "meta_ephemeris_type": 0,
        "meta_classification_type": "U",
        "meta_norad_cat_id": 34005,
        "meta_element_set_no": 999,
        "meta_rev_at_epoch": 88288,
        "meta_bstar": 0.00022332975,
        "meta_mean_motion_dot": 6.83e-06,
        "meta_mean_motion_ddot": 0,
        "tle_line1": "1 34005U 93036GQ  25340.46280976  .00000683  00000+0  22333-3 0  9991",
        "tle_line2": "2 34005  74.0451 225.2438 0020603 344.5777 192.6212 14.40297600882889"
      },
      "geometry": {
        "type": "Point",
        "coordinates": [
          49.19016377738325,
          -17.694816993600874
        ]
      }
    },
    {
      "type": "Feature",
      "properties": {
        "norad_id": 34006,
        "name": "COSMOS 2251 DEB",
        "group": "cosmos-2251-debris",
        "lat": 72.42412953605125,
        "lon": -90.00263400982459,
        "alt_km": 569.5026728488683,
        "timestamp": "2025-12-07T03:52:32.895860+00:00",
        "meta_object_name": "COSMOS 2251 DEB",
        "meta_object_id": "1993-036GR",
        "meta_epoch": "2025-12-05T23:05:10.757184",
        "meta_mean_motion": 14.94011993,
        "meta_eccentricity": 0.00120838,
        "meta_inclination": 74.0531,
        "meta_ra_of_asc_node": 156.9256,
        "meta_arg_of_pericenter": 111.4056,
        "meta_mean_anomaly": 16.7828,
        "meta_ephemeris_type": 0,
        "meta_classification_type": "U",
        "meta_norad_cat_id": 34006,
        "meta_element_set_no": 999,
        "meta_rev_at_epoch": 88567,
        "meta_bstar": 0.0045789293,
        "meta_mean_motion_dot": 0.0004922,
        "meta_mean_motion_ddot": 0,
        "tle_line1": "1 34006U 93036GR  25339.96193006  .00049220  00000+0  45789-2 0  9991",
        "tle_line2": "2 34006  74.0531 156.9256 0012083 111.4056  16.7828 14.94011993885678"
      },
      "geometry": {
        "type": "Point",
        "coordinates": [
          -90.00263400982459,
          72.42412953605125
        ]
      }
    },
    {
      "type": "Feature",
      "properties": {
        "norad_id": 34007,
        "name": "COSMOS 2251 DEB",
        "group": "cosmos-2251-debris",
        "lat": -73.983394461208,
        "lon": -89.01697182815334,
        "alt_km": 707.659369499328,
        "timestamp": "2025-12-07T03:52:32.895870+00:00",
        "meta_object_name": "COSMOS 2251 DEB",
        "meta_object_id": "1993-036GS",
        "meta_epoch": "2025-12-06T11:53:35.088864",
        "meta_mean_motion": 14.64721791,
        "meta_eccentricity": 0.00445765,
        "meta_inclination": 74.0194,
        "meta_ra_of_asc_node": 358.9162,
        "meta_arg_of_pericenter": 135.8494,
        "meta_mean_anomaly": 224.6247,
        "meta_ephemeris_type": 0,
        "meta_classification_type": "U",
        "meta_norad_cat_id": 34007,
        "meta_element_set_no": 999,
        "meta_rev_at_epoch": 88988,
        "meta_bstar": 0.0012293927,
        "meta_mean_motion_dot": 6.618e-05,
        "meta_mean_motion_ddot": 0,
        "tle_line1": "1 34007U 93036GS  25340.49554501  .00006618  00000+0  12294-2 0  9992",
        "tle_line2": "2 34007  74.0194 358.9162 0044576 135.8494 224.6247 14.64721791889885"
      },
      "geometry": {
        "type": "Point",
        "coordinates": [
          -89.01697182815334,
          -73.983394461208
        ]
      }
    },
    {
      "type": "Feature",
      "properties": {
        "norad_id": 34008,
        "name": "COSMOS 2251 DEB",
        "group": "cosmos-2251-debris",
        "lat": -63.560587533757335,
        "lon": -164.13567585872477,
        "alt_km": 787.5621266114113,
        "timestamp": "2025-12-07T03:52:32.895881+00:00",
        "meta_object_name": "COSMOS 2251 DEB",
        "meta_object_id": "1993-036GT",
        "meta_epoch": "2025-12-06T10:40:22.444608",
        "meta_mean_motion": 14.33139609,
        "meta_eccentricity": 0.00240847,
        "meta_inclination": 74.0342,
        "meta_ra_of_asc_node": 342.0236,
        "meta_arg_of_pericenter": 338.4402,
        "meta_mean_anomaly": 173.7978,
        "meta_ephemeris_type": 0,
        "meta_classification_type": "U",
        "meta_norad_cat_id": 34008,
        "meta_element_set_no": 999,
        "meta_rev_at_epoch": 87874,
        "meta_bstar": 0.00023358649,
        "meta_mean_motion_dot": 6.17e-06,
        "meta_mean_motion_ddot": 0,
        "tle_line1": "1 34008U 93036GT  25340.44470422  .00000617  00000+0  23359-3 0  9995",
        "tle_line2": "2 34008  74.0342 342.0236 0024084 338.4402 173.7978 14.33139609878744"
      },
      "geometry": {
        "type": "Point",
        "coordinates": [
          -164.13567585872477,
          -63.560587533757335
        ]
      }
    },
    {
      "type": "Feature",
      "properties": {
        "norad_id": 34009,
        "name": "COSMOS 2251 DEB",
        "group": "cosmos-2251-debris",
        "lat": -69.46307211661767,
        "lon": -62.6910728139128,
        "alt_km": 801.3448496899973,
        "timestamp": "2025-12-07T03:52:32.895891+00:00",
        "meta_object_name": "COSMOS 2251 DEB",
        "meta_object_id": "1993-036GU",
        "meta_epoch": "2025-12-06T12:14:25.001376",
        "meta_mean_motion": 14.33214937,
        "meta_eccentricity": 0.00263275,
        "meta_inclination": 74.0371,
        "meta_ra_of_asc_node": 348.3218,
        "meta_arg_of_pericenter": 59.9525,
        "meta_mean_anomaly": 103.3556,
        "meta_ephemeris_type": 0,
        "meta_classification_type": "U",
        "meta_norad_cat_id": 34009,
        "meta_element_set_no": 999,
        "meta_rev_at_epoch": 87856,
        "meta_bstar": 0.00025619106,
        "meta_mean_motion_dot": 6.81e-06,
        "meta_mean_motion_ddot": 0,
        "tle_line1": "1 34009U 93036GU  25340.51001159  .00000681  00000+0  25619-3 0  9993",
        "tle_line2": "2 34009  74.0371 348.3218 0026327  59.9525 103.3556 14.33214937878568"
      },
      "geometry": {
        "type": "Point",
        "coordinates": [
          -62.6910728139128,
          -69.46307211661767
        ]
      }
    }
  ]
}